{
  "type": "FeatureCollection",
  "features": [
    {
      "type": "Feature",
      "properties": {
        "norad_id": 40730,
        "name": "GPS BIIF-10 (PRN 08)",
        "group": "gps-ops",
        "lat": 13.409323259853602,
        "lon": 84.9348543200773,
        "alt_km": 20392.86607021638,
        "timestamp": "2025-12-10T11:33:53.644384+00:00",
        "meta_object_name": "GPS BIIF-10 (PRN 08)",
        "meta_object_id": "2015-033A",
        "meta_epoch": "2025-12-09T18:13:06.590784",
        "meta_mean_motion": 2.00565693,
        "meta_eccentricity": 0.0110767,
        "meta_inclination": 54.1333,
        "meta_ra_of_asc_node": 274.8955,
        "meta_arg_of_pericenter": 26.7373,
        "meta_mean_anomaly": 333.8474,
        "meta_ephemeris_type": 0,
        "meta_classification_type": "U",
        "meta_norad_cat_id": 40730,
        "meta_element_set_no": 999,
        "meta_rev_at_epoch": 7619,
        "meta_bstar": 0,
        "meta_mean_motion_dot": -5.4e-07,
        "meta_mean_motion_ddot": 0,
        "tle_line1": "1 40730U 15033A   25343.75910406 -.00000054  00000+0  00000+0 0  9993",
        "tle_line2": "2 40730  54.1333 274.8955 0110767  26.7373 333.8474  2.00565693 76196"
      },
      "geometry": {
        "type": "Point",
        "coordinates": [
          84.9348543200773,
          13.409323259853602
        ]
      }
    },
    {
      "type": "Feature",
      "properties": {
        "norad_id": 41019,
        "name": "GPS BIIF-11 (PRN 10)",
        "group": "gps-ops",
        "lat": 48.29019686292896,
        "lon": 170.94707629931733,
        "alt_km": 20288.508077214465,
        "timestamp": "2025-12-10T11:33:53.644395+00:00",
        "meta_object_name": "GPS BIIF-11 (PRN 10)",
        "meta_object_id": "2015-062A",
        "meta_epoch": "2025-12-09T07:40:39.423936",
        "meta_mean_motion": 2.00567031,
        "meta_eccentricity": 0.0110732,
        "meta_inclination": 56.8297,
        "meta_ra_of_asc_node": 38.1346,
        "meta_arg_of_pericenter": 229.8556,
        "meta_mean_anomaly": 129.2222,
        "meta_ephemeris_type": 0,
        "meta_classification_type": "U",
        "meta_norad_cat_id": 41019,
        "meta_element_set_no": 999,
        "meta_rev_at_epoch": 7402,
        "meta_bstar": 0,
        "meta_mean_motion_dot": -8.3e-07,
        "meta_mean_motion_ddot": 0,
        "tle_line1": "1 41019U 15062A   25343.31990074 -.00000083  00000+0  00000+0 0  9999",
        "tle_line2": "2 41019  56.8297  38.1346 0110732 229.8556 129.2222  2.00567031 74027"
      },
      "geometry": {
        "type": "Point",
        "coordinates": [
          170.94707629931733,
          48.29019686292896
        ]
      }
    },
    {
      "type": "Feature",
      "properties": {
        "norad_id": 41328,
        "name": "GPS BIIF-12 (PRN 32)",
        "group": "gps-ops",
        "lat": 44.66145376299195,
        "lon": 139.88785432120184,
        "alt_km": 20420.334813528454,
        "timestamp": "2025-12-10T11:33:53.644406+00:00",
        "meta_object_name": "GPS BIIF-12 (PRN 32)",
        "meta_object_id": "2016-007A",
        "meta_epoch": "2025-12-09T09:39:21.792384",
        "meta_mean_motion": 2.00560837,
        "meta_eccentricity": 0.00919989,
        "meta_inclination": 55.4044,
        "meta_ra_of_asc_node": 96.9895,
        "meta_arg_of_pericenter": 243.4939,
        "meta_mean_anomaly": 115.5474,
        "meta_ephemeris_type": 0,
        "meta_classification_type": "U",
        "meta_norad_cat_id": 41328,
        "meta_element_set_no": 999,
        "meta_rev_at_epoch": 7203,
        "meta_bstar": 0,
        "meta_mean_motion_dot": 4e-08,
        "meta_mean_motion_ddot": 0,
        "tle_line1": "1 41328U 16007A   25343.40233556  .00000004  00000+0  00000+0 0  9999",
        "tle_line2": "2 41328  55.4044  96.9895 0091998 243.4939 115.5474  2.00560837 72038"
      },
      "geometry": {
        "type": "Point",
        "coordinates": [
          139.88785432120184,
          44.66145376299195
        ]
      }
    },
    {
      "type": "Feature",
      "properties": {
        "norad_id": 43873,
        "name": "GPS BIII-1  (PRN 04)",
        "group": "gps-ops",
        "lat": -36.6827227495325,
        "lon": 68.93359397545757,
        "alt_km": 20235.016900145576,
        "timestamp": "2025-12-10T11:33:53.644417+00:00",
        "meta_object_name": "GPS BIII-1  (PRN 04)",
        "meta_object_id": "2018-109A",
        "meta_epoch": "2025-12-08T13:41:32.071776",
        "meta_mean_motion": 2.00553358,
        "meta_eccentricity": 0.003721,
        "meta_inclination": 55.5654,
        "meta_ra_of_asc_node": 99.7112,
        "meta_arg_of_pericenter": 194.8122,
        "meta_mean_anomaly": 178.3596,
        "meta_ephemeris_type": 0,
        "meta_classification_type": "U",
        "meta_norad_cat_id": 43873,
        "meta_element_set_no": 999,
        "meta_rev_at_epoch": 5125,
        "meta_bstar": 0,
        "meta_mean_motion_dot": 6e-08,
        "meta_mean_motion_ddot": 0,
        "tle_line1": "1 43873U 18109A   25342.57051009  .00000006  00000+0  00000+0 0  9991",
        "tle_line2": "2 43873  55.5654  99.7112 0037210 194.8122 178.3596  2.00553358 51259"
      },
      "geometry": {
        "type": "Point",
        "coordinates": [
          68.93359397545757,
          -36.6827227495325
        ]
      }
    },
    {
      "type": "Feature",
      "properties": {
        "norad_id": 44506,
        "name": "GPS BIII-2  (PRN 18)",
        "group": "gps-ops",
        "lat": -24.59338101448408,
        "lon": 176.82288338636633,
        "alt_km": 20035.227170072794,
        "timestamp": "2025-12-10T11:33:53.644428+00:00",
        "meta_object_name": "GPS BIII-2  (PRN 18)",
        "meta_object_id": "2019-056A",
        "meta_epoch": "2025-12-09T10:21:29.039040",
        "meta_mean_motion": 2.00566038,
        "meta_eccentricity": 0.00577689,
        "meta_inclination": 55.7225,
        "meta_ra_of_asc_node": 338.6833,
        "meta_arg_of_pericenter": 198.4901,
        "meta_mean_anomaly": 333.2213,
        "meta_ephemeris_type": 0,
        "meta_classification_type": "U",
        "meta_norad_cat_id": 44506,
        "meta_element_set_no": 999,
        "meta_rev_at_epoch": 4626,
        "meta_bstar": 0,
        "meta_mean_motion_dot": -8.6e-07,
        "meta_mean_motion_ddot": 0,
        "tle_line1": "1 44506U 19056A   25343.43158610 -.00000086  00000+0  00000+0 0  9998",
        "tle_line2": "2 44506  55.7225 338.6833 0057768 198.4901 333.2213  2.00566038 46261"
      },
      "geometry": {
        "type": "Point",
        "coordinates": [
          176.82288338636633,
          -24.59338101448408
        ]
      }
    },
    {
      "type": "Feature",
      "properties": {
        "norad_id": 45854,
        "name": "GPS BIII-3  (PRN 23)",
        "group": "gps-ops",
        "lat": 21.7281290092773,
        "lon": -158.97620170577565,
        "alt_km": 20075.553929817004,
        "timestamp": "2025-12-10T11:33:53.644439+00:00",
        "meta_object_name": "GPS BIII-3  (PRN 23)",
        "meta_object_id": "2020-041A",
        "meta_epoch": "2025-12-09T06:59:18.994848",
        "meta_mean_motion": 2.0056182,
        "meta_eccentricity": 0.0060408,
        "meta_inclination": 56.5448,
        "meta_ra_of_asc_node": 36.3195,
        "meta_arg_of_pericenter": 203.3087,
        "meta_mean_anomaly": 171.1637,
        "meta_ephemeris_type": 0,
        "meta_classification_type": "U",
        "meta_norad_cat_id": 45854,
        "meta_element_set_no": 999,
        "meta_rev_at_epoch": 4023,
        "meta_bstar": 0,
        "meta_mean_motion_dot": -8.4e-07,
        "meta_mean_motion_ddot": 0,
        "tle_line1": "1 45854U 20041A   25343.29119207 -.00000084  00000+0  00000+0 0  9992",
        "tle_line2": "2 45854  56.5448  36.3195 0060408 203.3087 171.1637  2.00561820 40237"
      },
      "geometry": {
        "type": "Point",
        "coordinates": [
          -158.97620170577565,
          21.7281290092773
        ]
      }
    },
    {
      "type": "Feature",
      "properties": {
        "norad_id": 46826,
        "name": "GPS BIII-4  (PRN 14)",
        "group": "gps-ops",
        "lat": 41.9216041307939,
        "lon": -2.2539280085651754,
        "alt_km": 20143.344706709086,
        "timestamp": "2025-12-10T11:33:53.644450+00:00",
        "meta_object_name": "GPS BIII-4  (PRN 14)",
        "meta_object_id": "2020-078A",
        "meta_epoch": "2025-12-08T14:24:03.317760",
        "meta_mean_motion": 2.00566768,
        "meta_eccentricity": 0.0064574,
        "meta_inclination": 54.0161,
        "meta_ra_of_asc_node": 218.509,
        "meta_arg_of_pericenter": 203.354,
        "meta_mean_anomaly": 2.942,
        "meta_ephemeris_type": 0,
        "meta_classification_type": "U",
        "meta_norad_cat_id": 46826,
        "meta_element_set_no": 999,
        "meta_rev_at_epoch": 3768,
        "meta_bstar": 0,
        "meta_mean_motion_dot": 1.6e-07,
        "meta_mean_motion_ddot": 0,
        "tle_line1": "1 46826U 20078A   25342.60003840  .00000016  00000+0  00000+0 0  9995",
        "tle_line2": "2 46826  54.0161 218.5090 0064574 203.3540   2.9420  2.00566768 37684"
      },
      "geometry": {
        "type": "Point",
        "coordinates": [
          -2.2539280085651754,
          41.9216041307939
        ]
      }
    }
  ]
}